STARLINK-1559           
1 46077U 20055BC  26068.23360559  .00042685  00000+0  14779-2 0  9995
2 46077  53.0254  76.0659 0004229  33.9710 326.1559 15.29461733309518
STARLINK-35922          
1 66502U 25263T   26068.21975393  .00023804  00000+0  87173-3 0  9993
2 66502  43.0093 353.6390 0003320 259.7702 100.2776 15.27578500 18821
